{
  "type": "FeatureCollection",
  "features": [
    {
      "type": "Feature",
      "properties": {
        "norad_id": 58655,
        "name": "BEIDOU-3 M26 (C48)",
        "group": "beidou",
        "lat": 34.73940981721055,
        "lon": -140.17336752959713,
        "alt_km": 21530.596892569774,
        "timestamp": "2025-12-25T20:42:38.953520+00:00",
        "meta_object_name": "BEIDOU-3 M26 (C48)",
        "meta_object_id": "2023-207B",
        "meta_epoch": "2025-12-25T02:56:32.184672",
        "meta_mean_motion": 1.8623119,
        "meta_eccentricity": 0.00042463,
        "meta_inclination": 55.5969,
        "meta_ra_of_asc_node": 68.1683,
        "meta_arg_of_pericenter": 261.3463,
        "meta_mean_anomaly": 98.6594,
        "meta_ephemeris_type": 0,
        "meta_classification_type": "U",
        "meta_norad_cat_id": 58655,
        "meta_element_set_no": 999,
        "meta_rev_at_epoch": 1358,
        "meta_bstar": 0,
        "meta_mean_motion_dot": -2.7e-07,
        "meta_mean_motion_ddot": 0,
        "tle_line1": "1 58655U 23207B   25359.12259473 -.00000027  00000+0  00000+0 0  9998",
        "tle_line2": "2 58655  55.5969  68.1683 0004246 261.3463  98.6594  1.86231190 13582"
      },
      "geometry": {
        "type": "Point",
        "coordinates": [
          -140.17336752959713,
          34.73940981721055
        ]
      }
    },
    {
      "type": "Feature",
      "properties": {
        "norad_id": 61186,
        "name": "BEIDOU-3 M25 (C47)",
        "group": "beidou",
        "lat": -51.33583502955703,
        "lon": -169.27027311509082,
        "alt_km": 21523.456307120145,
        "timestamp": "2025-12-25T20:42:38.953531+00:00",
        "meta_object_name": "BEIDOU-3 M25 (C47)",
        "meta_object_id": "2024-168B",
        "meta_epoch": "2025-12-25T00:55:03.681120",
        "meta_mean_motion": 1.86230021,
        "meta_eccentricity": 0.00054132,
        "meta_inclination": 54.6311,
        "meta_ra_of_asc_node": 308.2949,
        "meta_arg_of_pericenter": 300.1318,
        "meta_mean_anomaly": 120.184,
        "meta_ephemeris_type": 0,
        "meta_classification_type": "U",
        "meta_norad_cat_id": 61186,
        "meta_element_set_no": 999,
        "meta_rev_at_epoch": 854,
        "meta_bstar": 0,
        "meta_mean_motion_dot": -5.4e-07,
        "meta_mean_motion_ddot": 0,
        "tle_line1": "1 61186U 24168B   25359.03823705 -.00000054  00000+0  00000+0 0  9993",
        "tle_line2": "2 61186  54.6311 308.2949 0005413 300.1318 120.1840  1.86230021  8544"
      },
      "geometry": {
        "type": "Point",
        "coordinates": [
          -169.27027311509082,
          -51.33583502955703
        ]
      }
    },
    {
      "type": "Feature",
      "properties": {
        "norad_id": 61187,
        "name": "BEIDOU-3 M27 (C49)",
        "group": "beidou",
        "lat": 22.673341832967484,
        "lon": -34.519835759868215,
        "alt_km": 21520.546852043706,
        "timestamp": "2025-12-25T20:42:38.953543+00:00",
        "meta_object_name": "BEIDOU-3 M27 (C49)",
        "meta_object_id": "2024-168C",
        "meta_epoch": "2025-12-25T00:22:38.802432",
        "meta_mean_motion": 1.86230181,
        "meta_eccentricity": 0.00025443,
        "meta_inclination": 54.6266,
        "meta_ra_of_asc_node": 308.2793,
        "meta_arg_of_pericenter": 341.3451,
        "meta_mean_anomaly": 198.8284,
        "meta_ephemeris_type": 0,
        "meta_classification_type": "U",
        "meta_norad_cat_id": 61187,
        "meta_element_set_no": 999,
        "meta_rev_at_epoch": 601,
        "meta_bstar": 0,
        "meta_mean_motion_dot": -5.4e-07,
        "meta_mean_motion_ddot": 0,
        "tle_line1": "1 61187U 24168C   25359.01572688 -.00000054  00000+0  00000+0 0  9993",
        "tle_line2": "2 61187  54.6266 308.2793 0002544 341.3451 198.8284  1.86230181  6019"
      },
      "geometry": {
        "type": "Point",
        "coordinates": [
          -34.519835759868215,
          22.673341832967484
        ]
      }
    }
  ]
}